{"fetched_at":"2026-04-04T05:23:49Z","count":4983,"tles":[{"name":"QIANFAN-60","line1":"1 62790U 25016F   26093.61598765  .00000030  00000+0  28416-4 0  9992","line2":"2 62790  88.9662  91.4577 0016749  27.4514 332.7518 13.51010571 62335","category":"Other"},{"name":"STARLINK-5587","line1":"1 75587C 23094AD  23189.76506944  .00425505  00000-0  61423-3 0  1895","line2":"2 75587  42.9963 313.5411 0077026 152.4525  40.7090 15.98178540    10","category":"Starlink"},{"name":"FENGYUN 1C DEB","line1":"1 29765U 99025BF  26093.52942440  .00000032  00000+0  47511-4 0  9990","line2":"2 29765  98.8203 113.1800 0059101 140.0622  12.1488 14.02168472983173","category":"Weather"},{"name":"STARLINK-35090","line1":"1 65698U 25212Y   26093.64334111  .00052284  00000+0  17658-2 0  9998","line2":"2 65698  53.1605 229.7922 0001889  96.9009 263.2207 15.30184371 31063","category":"Starlink"},{"name":"FENGYUN 1C DEB","line1":"1 31186U 99025BJQ 26093.57267216  .00001128  00000+0  62613-3 0  9992","line2":"2 31186  99.1808  16.7361 0026331 107.5628  69.7844 14.13122848976840","category":"Weather"},{"name":"STARLINK-32533","line1":"1 61706U 24195V   26093.55324490 -.00002435  00000+0 -70170-4 0  9997","line2":"2 61706  53.1621  39.4812 0001138 100.9528 259.1601 15.30179718 80997","category":"Starlink"},{"name":"STARLINK-36523","line1":"1 67460U 26008R   26093.63345770  .00053106  00000+0  19232-2 0  9997","line2":"2 67460  43.0107  64.6469 0002864 277.9991  82.0535 15.27618566 13384","category":"Starlink"},{"name":"SL-12 R/B(2)","line1":"1 17874U 84016F   26093.61670591  .00000056  00000+0  00000+0 0  9990","line2":"2 17874   8.7180 311.3741 0033919 228.6826 289.0983  1.00304921122107","category":"Other"},{"name":"STARLINK-34415","line1":"1 64618U 25137AA  26093.62964035 -.00009787  00000+0 -31919-3 0  9996","line2":"2 64618  53.1575 219.3622 0001196  56.5872 303.5243 15.30155661 44559","category":"Starlink"},{"name":"STARLINK-5705","line1":"1 55472U 23015Z   26093.54100817 -.00001294  00000+0 -65208-4 0  9992","line2":"2 55472  43.0018 177.8443 0000947 234.6586 125.4171 15.09910834174642","category":"Starlink"},{"name":"COSMOS 2251 DEB","line1":"1 37971U 93036BPW 26091.98213343  .00007634  00000+0  19100-2 0  9991","line2":"2 37971  73.9919 194.3363 0067449 304.2926  55.1860 14.50239846622751","category":"Other"},{"name":"NUSAT-31 (RUBY PAYNE-S)","line1":"1 52752U 22057W   26090.67473675  .10764115  27296-5  28016-3 0  9995","line2":"2 52752  97.6233 263.4282 0010813 259.2874 100.7210 16.45001621215498","category":"Other"},{"name":"STARLINK-31852","line1":"1 59841U 24097G   26093.38972400  .00000845  00000+0  40210-4 0  9999","line2":"2 59841  43.0003 127.1381 0001118 270.0001  90.0723 15.27588954105789","category":"Starlink"},{"name":"FENGYUN 1C DEB","line1":"1 30745U 99025ATF 23178.11343821  .00008453  00000+0  25290-2 0  9997","line2":"2 30745  99.2569 236.5779 0023394 352.9638  68.9272 14.42988655850343","category":"Weather"},{"name":"COSMOS 2251 DEB","line1":"1 47062U 93036BXS 26092.69201674  .00001050  00000+0  80846-3 0  9998","line2":"2 47062  74.0804 255.1519 0323786 355.2015  19.6227 13.72290328571245","category":"Other"},{"name":"FALCON 9 DEB","line1":"1 56928U 23083BE  23207.45499121  .07938071  93889-5  55081-3 0  9994","line2":"2 56928  43.0074 228.2083 0006431 312.5438  47.4912 16.40105873  7857","category":"Other"},{"name":"SL-6 R/B(2)","line1":"1 10089U 77047D   26012.29046398  .00000103  00000+0  00000+0 0  9997","line2":"2 10089  66.7010 105.4393 5733572 305.7462  13.5462  1.99306989257340","category":"Other"},{"name":"FENGYUN 1C DEB","line1":"1 41003U 99025EXH 26092.55264940  .00069714  00000+0  88029-2 0  9992","line2":"2 41003  98.9672  28.7520 0061154 305.7668  53.7864 14.80228824540558","category":"Weather"},{"name":"STARLINK-4705","line1":"1 53723U 22107Z   26093.43000504  .00001049  00000+0  83971-4 0  9993","line2":"2 53723  53.2164 142.7027 0001351  92.9510 267.1637 15.08842385198297","category":"Starlink"},{"name":"FENGYUN 1C DEB","line1":"1 31729U 99025CEC 23175.20941719  .00005869  00000+0  31720-2 0  9990","line2":"2 31729  99.2751 329.9202 0076620 288.4840  70.8014 14.11493014820399","category":"Weather"},{"name":"ONEWEB-0108","line1":"1 48076U 21025AL  26093.65032492  .00000240  00000+0  62109-3 0  9992","line2":"2 48076  87.9011 335.0477 0001542  86.0347 274.0959 13.13469160243865","category":"Other"},{"name":"STARLINK-30344","line1":"1 57737U 23131F   26093.55680340  .00016631  00000+0  11509-2 0  9994","line2":"2 57737  43.0017  35.9276 0001331 244.9984 115.0721 15.05437557143676","category":"Starlink"},{"name":"COSMOS 2251 DEB","line1":"1 34907U 93036ADC 26005.00762490  .03481461  00000+0  13025-1 0  9993","line2":"2 34907  73.9537 356.6519 0006233 178.9909 181.1335 15.84092089883356","category":"Other"},{"name":"STARLINK-3335","line1":"1 50806U 22001D   26093.58783822 -.00000390  00000+0 -64061-5 0  9992","line2":"2 50806  53.2184  47.3488 0001325  81.6420 278.4723 15.08836974234306","category":"Starlink"},{"name":"DALIAN-1 LIANLI","line1":"1 58816U 23063C   24047.58214281  .00258963  00000+0  17959-2 0  9995","line2":"2 58816  41.4664 104.8440 0012467  31.4436 328.7150 15.72771764  4543","category":"Other"},{"name":"STARLINK-1066","line1":"1 44954U 20001AS  23362.17277067  .00017508  00000+0  11908-2 0  9993","line2":"2 44954  53.0547 309.2549 0001457  82.3975 277.7180 15.06416659219394","category":"Starlink"},{"name":"STARLINK-5743","line1":"1 55597U 23020AE  26093.38828330  .00017233  00000+0  65097-3 0  9998","line2":"2 55597  43.0023 214.1555 0001868 247.7099 112.3554 15.26721067172827","category":"Starlink"},{"name":"STARLINK-32868","line1":"1 62854U 25022A   26093.50048409  .00029295  00000+0  99698-3 0  9996","line2":"2 62854  53.1625  14.0235 0001450 106.2098 253.9063 15.30211628 66515","category":"Starlink"},{"name":"STARLINK-6106","line1":"1 76106C 23090BF  23185.63104167 -.00982638  00000-0 -58728-2 0  1858","line2":"2 76106  43.0001 215.1661 0001207 265.8285 279.8560 15.77878523    19","category":"Starlink"},{"name":"FENGYUN 1C DEB","line1":"1 38134U 99025EQF 23169.85380733  .00006617  00000+0  31456-2 0  9992","line2":"2 38134  98.4653 195.8286 0120291 121.0469 240.2582 14.15969660699838","category":"Weather"},{"name":"STARLINK-4189","line1":"1 52853U 22062Z   26092.80448542  .00000863  00000+0  72302-4 0  9993","line2":"2 52853  53.2154 275.8383 0001462  90.6979 269.4181 15.08838922209563","category":"Starlink"},{"name":"STARLINK-31861","line1":"1 59906U 24100X   26093.36997198 -.00000267  00000+0 -19161-6 0  9998","line2":"2 59906  42.9981 338.8757 0000129   4.9934 355.0919 15.27591890105001","category":"Starlink"},{"name":"KUIPER-00151","line1":"1 65771U 25217K   26093.56802455  .00007035  00000+0  95093-3 0  9991","line2":"2 65771  51.9009 293.0949 0000832  93.0478 267.0580 14.79929960 28567","category":"Other"},{"name":"FENGYUN 1C DEB","line1":"1 30859U 99025AWV 26093.39773350  .00021683  00000+0  53608-2 0  9990","line2":"2 30859  98.9151 155.0853 0029959  61.5589 298.8617 14.51747168986531","category":"Weather"},{"name":"URESAT-1","line1":"1 56992U 23084BU  25042.76759540  .17342116  26494-5  33638-3 0  9995","line2":"2 56992  97.5047 178.6720 0014759 276.3055  83.6566 16.46134597 93271","category":"Other"},{"name":"RADUGA 7","line1":"1 12003U 80081A   26093.45388862 -.00000288  00000+0  00000+0 0  9994","line2":"2 12003   6.1305 289.8890 0011318 321.1555  57.1379  1.00332183122562","category":"Other"},{"name":"EUTELSAT 65 WEST A","line1":"1 41382U 16014A   26093.52154552 -.00000279  00000+0  00000+0 0  9996","line2":"2 41382   0.0665 323.4664 0002282  49.3040 301.6406  1.00271867 36774","category":"Other"},{"name":"FENGYUN 1C DEB","line1":"1 31825U 99025CHP 26092.24792443  .00002400  00000+0  96207-3 0  9990","line2":"2 31825  98.5959  94.0358 0165639  17.8693 342.8216 14.21982050971925","category":"Weather"},{"name":"STARLINK-2492","line1":"1 48149U 21027BK  26093.57553058 -.00004537  00000+0 -14494-3 0  9991","line2":"2 48149  53.1590  36.6729 0001785  85.3857 274.7347 15.29360263276490","category":"Starlink"},{"name":"H-2A DEB","line1":"1 57802U 23137C   23279.16004975  .00014931  00000+0  12140-2 0  9990","line2":"2 57802  31.0019 191.9190 0011964 196.5347 163.4898 14.98385709  4382","category":"Other"},{"name":"STARLINK-36576","line1":"1 67534U 26014C   26093.65693720  .00230554  00000+0  15067-2 0  9995","line2":"2 67534  97.2835 339.8188 0001406 109.6220 250.5197 15.75167850 12504","category":"Starlink"},{"name":"IRIDIUM 33 DEB","line1":"1 35049U 97051NV  23178.54636145  .00031277  00000+0  38959-2 0  9993","line2":"2 35049  86.3608  10.0172 0020422 310.5830  49.3614 14.82182587751764","category":"Other"},{"name":"FLOCK 4X-5","line1":"1 51004U 22002W   23361.74913260  .00026378  00000+0  76027-3 0  9993","line2":"2 51004  97.4133  70.3833 0006400 262.3757  97.6760 15.35686457108469","category":"Other"},{"name":"STARLINK-31328","line1":"1 58880U 24020E   26093.57215816 -.00007968  00000+0 -25751-3 0  9996","line2":"2 58880  53.1596 191.6329 0000205  57.3389 302.7632 15.30161279122095","category":"Starlink"},{"name":"STARLINK-34577","line1":"1 64719U 25142Z   26093.15251258  .00004185  00000+0  35829-3 0  9997","line2":"2 64719  70.0003 252.7954 0002501 272.1774  87.9098 14.98337893 43150","category":"Starlink"},{"name":"BREEZE-M R/B","line1":"1 28360U 04022C   26092.64930896 -.00000126  00000+0  00000+0 0  9999","line2":"2 28360  23.6679 101.7400 5998804 314.2683   9.8188  2.01498884159831","category":"Other"},{"name":"STARLINK-1147","line1":"1 45095U 20006BD  23362.25001157 -.00007890  00000+0 -51156-3 0  9994","line2":"2 45095  53.0527 249.4926 0001374  82.4231 206.4596 15.06386405216412","category":"Starlink"},{"name":"STARLINK-5456","line1":"1 55667U 23021AR  26093.03184949  .00000314  00000+0  34125-4 0  9991","line2":"2 55667  69.9982 102.9684 0002925 270.4877  89.5946 14.98335824172937","category":"Starlink"}]}